[{"OBJECT_NAME":"STARLINK-30702","OBJECT_ID":"2023-148W","EPOCH":"2026-03-09T05:48:17.758944","MEAN_MOTION":15.30191301,"ECCENTRICITY":9.511e-5,"INCLINATION":53.1613,"RA_OF_ASC_NODE":16.2915,"ARG_OF_PERICENTER":79.3427,"MEAN_ANOMALY":280.7681,"EPHEMERIS_TYPE":0,"CLASSIFICATION_TYPE":"U","NORAD_CAT_ID":57955,"ELEMENT_SET_NO":999,"REV_AT_EPOCH":13849,"BSTAR":-1.6505985e-5,"MEAN_MOTION_DOT":-8.48e-6,"MEAN_MOTION_DDOT":0},{"OBJECT_NAME":"KUIPER-00222","OBJECT_ID":"2026-030U","EPOCH":"2026-03-09T16:13:57.726048","MEAN_MOTION":15.32445377,"ECCENTRICITY":0.00128002,"INCLINATION":51.8817,"RA_OF_ASC_NODE":219.7147,"ARG_OF_PERICENTER":40.1845,"MEAN_ANOMALY":320.0084,"EPHEMERIS_TYPE":0,"CLASSIFICATION_TYPE":"U","NORAD_CAT_ID":67782,"ELEMENT_SET_NO":999,"REV_AT_EPOCH":508,"BSTAR":0.0017317201,"MEAN_MOTION_DOT":0.00055223,"MEAN_MOTION_DDOT":0}]
